NORAD_CAT_ID,OBJECT_NAME,OBJECT_TYPE,EPOCH,MEAN_MOTION,ECCENTRICITY,INCLINATION,RA_OF_ASC_NODE,ARG_OF_PERICENTER,MEAN_ANOMALY,BSTAR,MEAN_MOTION_DOT,MEAN_MOTION_DDOT,TLE_LINE0,TLE_LINE1,TLE_LINE2,SEMIMAJOR_AXIS,PERIOD,APOGEE,PERIGEE,DECAYED
50839.0,STARLINK-3320,PAYLOAD,2024-08-15 07:07:02,15.08843319,0.0001584,53.2147,224.2041,91.6306,268.4868,0.00023485,3.452e-05,0.0,0 STARLINK-3320,1 50839U 22001AN  24228.29655355  .00003452  00000-0  23485-3 0  9997,2 50839  53.2147 224.2041 0001584  91.6306 268.4868 15.08843319143997,6917.87,95.437,540.831,538.639,0.0
50839.0,STARLINK-3320,PAYLOAD,2024-08-15 16:39:21,15.0884291,0.0001567,53.2145,222.42,91.826,268.2912,0.00017841,2.553e-05,0.0,0 STARLINK-3320,1 50839U 22001AN  24228.69399321  .00002553  00000-0  17841-3 0  9999,2 50839  53.2145 222.4200 0001567  91.8260 268.2912 15.08842910145338,6917.871,95.437,540.821,538.652,0.0
50839.0,STARLINK-3320,PAYLOAD,2024-08-16 06:57:49,15.08846038,0.0001606,53.2142,219.7445,96.5843,263.5332,0.00013986,1.939e-05,0.0,0 STARLINK-3320,1 50839U 22001AN  24229.29015103  .00001939  00000-0  13986-3 0  9992,2 50839  53.2142 219.7445 0001606  96.5843 263.5332 15.08846038144145,6917.862,95.437,540.838,538.616,0.0
50839.0,STARLINK-3320,PAYLOAD,2024-08-17 05:13:12,15.08842589,0.0001588,53.2141,215.5814,96.7384,263.3789,3.2091e-05,2.23e-06,0.0,0 STARLINK-3320,1 50839U 22001AN  24230.21751095  .00000223  00000-0  32091-4 0  9997,2 50839  53.2141 215.5814 0001588  96.7384 263.3789 15.08842589145567,6917.872,95.437,540.836,538.639,0.0
50839.0,STARLINK-3320,PAYLOAD,2024-08-17 06:48:36,15.08843103,0.0001555,53.2139,215.2837,95.005,265.1119,3.5248e-05,2.73e-06,0.0,0 STARLINK-3320,1 50839U 22001AN  24230.28375052  .00000273  00000-0  35248-4 0  9991,2 50839  53.2139 215.2837 0001555  95.0050 265.1119 15.08843103144291,6917.871,95.437,540.812,538.66,0.0
50839.0,STARLINK-3320,PAYLOAD,2024-08-18 05:04:00,15.08842035,0.0001656,53.2159,211.12,84.8574,275.2607,5.5845e-05,6.01e-06,0.0,0 STARLINK-3320,1 50839U 22001AN  24231.21111332  .00000601  00000-0  55845-4 0  9994,2 50839  53.2159 211.1200 0001656  84.8574 275.2607 15.08842035144434,6917.874,95.437,540.885,538.594,0.0
50839.0,STARLINK-3320,PAYLOAD,2024-08-19 04:54:47,15.08840168,0.0001536,53.2159,206.659,96.7797,263.337,6.2028e-05,6.99e-06,0.0,0 STARLINK-3320,1 50839U 22001AN  24232.20471259  .00000699  00000-0  62028-4 0  9999,2 50839  53.2159 206.6590 0001536  96.7797 263.3370 15.08840168145869,6917.88,95.438,540.807,538.682,0.0
50839.0,STARLINK-3320,PAYLOAD,2024-08-19 09:40:56,15.08842937,0.0001551,53.216,205.7669,95.8682,264.2487,8.1909e-05,1.016e-05,0.0,0 STARLINK-3320,1 50839U 22001AN  24232.40343020  .00001016  00000-0  81909-4 0  9998,2 50839  53.2160 205.7669 0001551  95.8682 264.2487 15.08842937144615,6917.871,95.437,540.809,538.663,0.0
50839.0,STARLINK-3320,PAYLOAD,2024-08-20 07:56:20,15.08841006,0.0001719,53.217,201.6028,102.745,257.3735,2.9952e-06,-2.4e-06,0.0,0 STARLINK-3320,1 50839U 22001AN  24233.33079470 -.00000240  00000-0  29952-5 0  9996,2 50839  53.2170 201.6028 0001719 102.7450 257.3735 15.08841006146030,6917.877,95.437,540.931,538.553,0.0
50839.0,STARLINK-3320,PAYLOAD,2024-08-21 07:47:07,15.08843799,0.0001469,53.2171,197.1424,95.3415,264.7745,8.0248e-05,9.9e-06,0.0,0 STARLINK-3320,1 50839U 22001AN  24234.32439224  .00000990  00000-0  80248-4 0  9998,2 50839  53.2171 197.1424 0001469  95.3415 264.7745 15.08843799144908,6917.869,95.437,540.75,538.718,0.0
